{
  "type": "FeatureCollection",
  "features": [
    {
      "type": "Feature",
      "properties": {
        "norad_id": 34857,
        "name": "COSMOS 2251 DEB",
        "group": "cosmos-2251-debris",
        "lat": NaN,
        "lon": NaN,
        "alt_km": NaN,
        "timestamp": "2025-12-01T02:47:04.290846+00:00",
        "meta": {
          "OBJECT_NAME": "COSMOS 2251 DEB",
          "OBJECT_ID": "1993-036ACB",
          "EPOCH": "2025-11-30T15:06:32.630112",
          "MEAN_MOTION": 14.58682147,
          "ECCENTRICITY": 0.0066277,
          "INCLINATION": 74.0142,
          "RA_OF_ASC_NODE": 129.9239,
          "ARG_OF_PERICENTER": 256.4965,
          "MEAN_ANOMALY": 230.928,
          "EPHEMERIS_TYPE": 0,
          "CLASSIFICATION_TYPE": "U",
          "NORAD_CAT_ID": 34857,
          "ELEMENT_SET_NO": 999,
          "REV_AT_EPOCH": 87724,
          "BSTAR": 0.0011151,
          "MEAN_MOTION_DOT": 5.333e-05,
          "MEAN_MOTION_DDOT": 0
        }
      },
      "geometry": {
        "type": "Point",
        "coordinates": [
          NaN,
          NaN
        ]
      }
    },
    {
      "type": "Feature",
      "properties": {
        "norad_id": 34859,
        "name": "COSMOS 2251 DEB",
        "group": "cosmos-2251-debris",
        "lat": NaN,
        "lon": NaN,
        "alt_km": NaN,
        "timestamp": "2025-12-01T02:47:04.290862+00:00",
        "meta": {
          "OBJECT_NAME": "COSMOS 2251 DEB",
          "OBJECT_ID": "1993-036ACD",
          "EPOCH": "2025-11-30T13:10:34.533120",
          "MEAN_MOTION": 15.11712693,
          "ECCENTRICITY": 0.0004998,
          "INCLINATION": 74.034,
          "RA_OF_ASC_NODE": 4.9549,
          "ARG_OF_PERICENTER": 311.3133,
          "MEAN_ANOMALY": 200.9931,
          "EPHEMERIS_TYPE": 0,
          "CLASSIFICATION_TYPE": "U",
          "NORAD_CAT_ID": 34859,
          "ELEMENT_SET_NO": 999,
          "REV_AT_EPOCH": 88174,
          "BSTAR": 0.0044854,
          "MEAN_MOTION_DOT": 0.00077237,
          "MEAN_MOTION_DDOT": 0
        }
      },
      "geometry": {
        "type": "Point",
        "coordinates": [
          NaN,
          NaN
        ]
      }
    },
    {
      "type": "Feature",
      "properties": {
        "norad_id": 34861,
        "name": "COSMOS 2251 DEB",
        "group": "cosmos-2251-debris",
        "lat": NaN,
        "lon": NaN,
        "alt_km": NaN,
        "timestamp": "2025-12-01T02:47:04.290879+00:00",
        "meta": {
          "OBJECT_NAME": "COSMOS 2251 DEB",
          "OBJECT_ID": "1993-036ACF",
          "EPOCH": "2025-11-30T06:03:01.447776",
          "MEAN_MOTION": 15.01345186,
          "ECCENTRICITY": 0.00057301,
          "INCLINATION": 74.0188,
          "RA_OF_ASC_NODE": 76.3349,
          "ARG_OF_PERICENTER": 95.7014,
          "MEAN_ANOMALY": 290.4626,
          "EPHEMERIS_TYPE": 0,
          "CLASSIFICATION_TYPE": "U",
          "NORAD_CAT_ID": 34861,
          "ELEMENT_SET_NO": 999,
          "REV_AT_EPOCH": 87905,
          "BSTAR": 0.002997217,
          "MEAN_MOTION_DOT": 0.00038808,
          "MEAN_MOTION_DDOT": 0
        }
      },
      "geometry": {
        "type": "Point",
        "coordinates": [
          NaN,
          NaN
        ]
      }
    },
    {
      "type": "Feature",
      "properties": {
        "norad_id": 34874,
        "name": "COSMOS 2251 DEB",
        "group": "cosmos-2251-debris",
        "lat": NaN,
        "lon": NaN,
        "alt_km": NaN,
        "timestamp": "2025-12-01T02:47:04.290895+00:00",
        "meta": {
          "OBJECT_NAME": "COSMOS 2251 DEB",
          "OBJECT_ID": "1993-036ACM",
          "EPOCH": "2025-11-30T18:07:35.371200",
          "MEAN_MOTION": 14.36203655,
          "ECCENTRICITY": 0.0051691,
          "INCLINATION": 74.0381,
          "RA_OF_ASC_NODE": 95.7715,
          "ARG_OF_PERICENTER": 124.7782,
          "MEAN_ANOMALY": 4.5403,
          "EPHEMERIS_TYPE": 0,
          "CLASSIFICATION_TYPE": "U",
          "NORAD_CAT_ID": 34874,
          "ELEMENT_SET_NO": 999,
          "REV_AT_EPOCH": 86872,
          "BSTAR": 0.0010851,
          "MEAN_MOTION_DOT": 3.19e-05,
          "MEAN_MOTION_DDOT": 0
        }
      },
      "geometry": {
        "type": "Point",
        "coordinates": [
          NaN,
          NaN
        ]
      }
    },
    {
      "type": "Feature",
      "properties": {
        "norad_id": 34875,
        "name": "COSMOS 2251 DEB",
        "group": "cosmos-2251-debris",
        "lat": NaN,
        "lon": NaN,
        "alt_km": NaN,
        "timestamp": "2025-12-01T02:47:04.290911+00:00",
        "meta": {
          "OBJECT_NAME": "COSMOS 2251 DEB",
          "OBJECT_ID": "1993-036ACN",
          "EPOCH": "2025-11-30T15:05:12.539040",
          "MEAN_MOTION": 14.48861767,
          "ECCENTRICITY": 0.0015923,
          "INCLINATION": 74.0432,
          "RA_OF_ASC_NODE": 180.904,
          "ARG_OF_PERICENTER": 305.3784,
          "MEAN_ANOMALY": 111.7997,
          "EPHEMERIS_TYPE": 0,
          "CLASSIFICATION_TYPE": "U",
          "NORAD_CAT_ID": 34875,
          "ELEMENT_SET_NO": 999,
          "REV_AT_EPOCH": 87580,
          "BSTAR": 0.0003921,
          "MEAN_MOTION_DOT": 1.458e-05,
          "MEAN_MOTION_DDOT": 0
        }
      },
      "geometry": {
        "type": "Point",
        "coordinates": [
          NaN,
          NaN
        ]
      }
    },
    {
      "type": "Feature",
      "properties": {
        "norad_id": 34878,
        "name": "COSMOS 2251 DEB",
        "group": "cosmos-2251-debris",
        "lat": NaN,
        "lon": NaN,
        "alt_km": NaN,
        "timestamp": "2025-12-01T02:47:04.290928+00:00",
        "meta": {
          "OBJECT_NAME": "COSMOS 2251 DEB",
          "OBJECT_ID": "1993-036ACR",
          "EPOCH": "2025-11-29T00:18:53.669088",
          "MEAN_MOTION": 13.44168384,
          "ECCENTRICITY": 0.04354985,
          "INCLINATION": 73.9646,
          "RA_OF_ASC_NODE": 69.0978,
          "ARG_OF_PERICENTER": 55.3635,
          "MEAN_ANOMALY": 117.1144,
          "EPHEMERIS_TYPE": 0,
          "CLASSIFICATION_TYPE": "U",
          "NORAD_CAT_ID": 34878,
          "ELEMENT_SET_NO": 999,
          "REV_AT_EPOCH": 81088,
          "BSTAR": 0.00036555766,
          "MEAN_MOTION_DOT": 3.56e-06,
          "MEAN_MOTION_DDOT": 0
        }
      },
      "geometry": {
        "type": "Point",
        "coordinates": [
          NaN,
          NaN
        ]
      }
    },
    {
      "type": "Feature",
      "properties": {
        "norad_id": 34882,
        "name": "COSMOS 2251 DEB",
        "group": "cosmos-2251-debris",
        "lat": NaN,
        "lon": NaN,
        "alt_km": NaN,
        "timestamp": "2025-12-01T02:47:04.290944+00:00",
        "meta": {
          "OBJECT_NAME": "COSMOS 2251 DEB",
          "OBJECT_ID": "1993-036ACV",
          "EPOCH": "2025-11-30T04:27:57.780288",
          "MEAN_MOTION": 14.61553768,
          "ECCENTRICITY": 0.0082296,
          "INCLINATION": 74.0469,
          "RA_OF_ASC_NODE": 249.5905,
          "ARG_OF_PERICENTER": 19.7179,
          "MEAN_ANOMALY": 340.7136,
          "EPHEMERIS_TYPE": 0,
          "CLASSIFICATION_TYPE": "U",
          "NORAD_CAT_ID": 34882,
          "ELEMENT_SET_NO": 999,
          "REV_AT_EPOCH": 88341,
          "BSTAR": 0.00024470996,
          "MEAN_MOTION_DOT": 1.243e-05,
          "MEAN_MOTION_DDOT": 0
        }
      },
      "geometry": {
        "type": "Point",
        "coordinates": [
          NaN,
          NaN
        ]
      }
    },
    {
      "type": "Feature",
      "properties": {
        "norad_id": 34883,
        "name": "COSMOS 2251 DEB",
        "group": "cosmos-2251-debris",
        "lat": NaN,
        "lon": NaN,
        "alt_km": NaN,
        "timestamp": "2025-12-01T02:47:04.290961+00:00",
        "meta": {
          "OBJECT_NAME": "COSMOS 2251 DEB",
          "OBJECT_ID": "1993-036ACW",
          "EPOCH": "2025-11-30T07:02:10.083264",
          "MEAN_MOTION": 14.50759385,
          "ECCENTRICITY": 0.00947805,
          "INCLINATION": 74.1986,
          "RA_OF_ASC_NODE": 85.9044,
          "ARG_OF_PERICENTER": 273.1839,
          "MEAN_ANOMALY": 85.8482,
          "EPHEMERIS_TYPE": 0,
          "CLASSIFICATION_TYPE": "U",
          "NORAD_CAT_ID": 34883,
          "ELEMENT_SET_NO": 999,
          "REV_AT_EPOCH": 86259,
          "BSTAR": 0.0053947255,
          "MEAN_MOTION_DOT": 0.00022542,
          "MEAN_MOTION_DDOT": 0
        }
      },
      "geometry": {
        "type": "Point",
        "coordinates": [
          NaN,
          NaN
        ]
      }
    },
    {
      "type": "Feature",
      "properties": {
        "norad_id": 34884,
        "name": "COSMOS 2251 DEB",
        "group": "cosmos-2251-debris",
        "lat": NaN,
        "lon": NaN,
        "alt_km": NaN,
        "timestamp": "2025-12-01T02:47:04.290978+00:00",
        "meta": {
          "OBJECT_NAME": "COSMOS 2251 DEB",
          "OBJECT_ID": "1993-036ACX",
          "EPOCH": "2025-11-30T07:07:20.637696",
          "MEAN_MOTION": 14.89071732,
          "ECCENTRICITY": 0.00034563,
          "INCLINATION": 74.0168,
          "RA_OF_ASC_NODE": 81.6515,
          "ARG_OF_PERICENTER": 150.7543,
          "MEAN_ANOMALY": 240.2167,
          "EPHEMERIS_TYPE": 0,
          "CLASSIFICATION_TYPE": "U",
          "NORAD_CAT_ID": 34884,
          "ELEMENT_SET_NO": 999,
          "REV_AT_EPOCH": 87620,
          "BSTAR": 0.0033478595,
          "MEAN_MOTION_DOT": 0.00031672,
          "MEAN_MOTION_DDOT": 0
        }
      },
      "geometry": {
        "type": "Point",
        "coordinates": [
          NaN,
          NaN
        ]
      }
    }
  ]
}